NORAD_CAT_ID,OBJECT_NAME,OBJECT_TYPE,EPOCH,MEAN_MOTION,ECCENTRICITY,INCLINATION,RA_OF_ASC_NODE,ARG_OF_PERICENTER,MEAN_ANOMALY,BSTAR,MEAN_MOTION_DOT,MEAN_MOTION_DDOT,TLE_LINE0,TLE_LINE1,TLE_LINE2,SEMIMAJOR_AXIS,PERIOD,APOGEE,PERIGEE,DECAYED
52301.0,STARLINK-3768,PAYLOAD,2022-10-26 01:37:54,15.08839159,0.0002025,53.2206,223.6013,50.9636,309.1536,2.3266e-05,8.2e-07,0.0,0 STARLINK-3768,1 52301U 22041AS  22299.06799060  .00000082  00000-0  23266-4 0  9994,2 52301  53.2206 223.6013 0002025  50.9636 309.1536 15.08839159 29935,6917.8830000000025,95.438,541.149,538.347,0.0
52301.0,STARLINK-3768,PAYLOAD,2022-10-27 04:39:27,15.08839306,0.0001942,53.2199,218.5464,44.7827,315.3321,0.00018221,2.613e-05,0.0,0 STARLINK-3768,1 52301U 22041AS  22300.19407092  .00002613  00000-0  18221-3 0  9998,2 52301  53.2199 218.5464 0001942  44.7827 315.3321 15.08839306 30105,6917.8830000000025,95.438,541.091,538.404,0.0
52301.0,STARLINK-3768,PAYLOAD,2022-10-28 01:19:27,15.08854233,0.0001952,53.22,214.6812,44.2934,315.8214,9.3477e-05,1.2e-05,0.0,0 STARLINK-3768,1 52301U 22041AS  22301.05518164  .00001200  00000-0  93477-4 0  9995,2 52301  53.2200 214.6812 0001952  44.2934 315.8214 15.08854233 30233,6917.837,95.437,541.052,538.352,0.0
52301.0,STARLINK-3768,PAYLOAD,2022-10-28 10:51:46,15.08847146,0.0001974,53.2201,212.8974,44.6434,315.4717,1.1628e-05,-1.03e-06,0.0,0 STARLINK-3768,1 52301U 22041AS  22301.45262620 -.00000103  00000-0  11628-4 0  9992,2 52301  53.2201 212.8974 0001974  44.6434 315.4717 15.08847146 30291,6917.859,95.437,541.089,538.3580000000002,0.0
52301.0,STARLINK-3768,PAYLOAD,2022-10-29 04:21:00,15.08850997,0.0002036,53.2206,209.6266,47.7974,312.3191,7.5082e-05,9.07e-06,0.0,0 STARLINK-3768,1 52301U 22041AS  22302.18125867  .00000907  00000-0  75082-4 0  9999,2 52301  53.2206 209.6266 0002036  47.7974 312.3191 15.08850997 29194,6917.847,95.437,541.12,538.303,0.0
52301.0,STARLINK-3768,PAYLOAD,2022-10-29 20:14:52,15.08849436,0.0001873,53.2203,206.6534,47.0861,313.0288,-1.0899e-05,-4.62e-06,0.0,0 STARLINK-3768,1 52301U 22041AS  22302.84365958 -.00000462  00000-0 -10899-4 0  9992,2 52301  53.2203 206.6534 0001873  47.0861 313.0288 15.08849436 29294,6917.852,95.437,541.012,538.4209999999998,0.0
52301.0,STARLINK-3768,PAYLOAD,2022-10-30 10:33:20,15.08844832,0.0001888,53.2205,203.9768,41.3158,318.7977,-3.8895e-05,-9.07e-06,0.0,0 STARLINK-3768,1 52301U 22041AS  22303.43982067 -.00000907  00000-0 -38895-4 0  9994,2 52301  53.2205 203.9768 0001888  41.3158 318.7977 15.08844832 29389,6917.866,95.437,541.0369999999998,538.425,0.0
52301.0,STARLINK-3768,PAYLOAD,2022-10-30 21:41:03,15.08832314,0.0002061,53.2209,201.8962,47.338,312.7786,-1.26e-05,-4.89e-06,0.0,0 STARLINK-3768,1 52301U 22041AS  22303.90351076 -.00000489  00000-0 -12600-4 0  9997,2 52301  53.2209 201.8962 0002061  47.3380 312.7786 15.08832314 29455,6917.904,95.438,541.195,538.3430000000002,0.0
52301.0,STARLINK-3768,PAYLOAD,2022-10-31 10:24:08,15.08835763,0.0001934,53.2207,199.5181,44.2466,315.868,-3.5641999999999995e-05,-8.55e-06,0.0,0 STARLINK-3768,1 52301U 22041AS  22304.43343070 -.00000855  00000-0 -35642-4 0  9999,2 52301  53.2207 199.5181 0001934  44.2466 315.8680 15.08835763 30740,6917.893,95.438,541.096,538.42,0.0
52301.0,STARLINK-3768,PAYLOAD,2022-11-01 02:17:59,15.08845432,0.0001802,53.2199,196.5428,43.9258,316.1877,1.7565999999999994e-05,-9e-08,0.0,0 STARLINK-3768,1 52301U 22041AS  22305.09582268 -.00000009  00000-0  17566-4 0  9991,2 52301  53.2199 196.5428 0001802  43.9258 316.1877 15.08845432 30847,6917.864000000001,95.437,540.975,538.482,0.0
52301.0,STARLINK-3768,PAYLOAD,2022-11-01 10:14:54,15.08840871,0.0001985,53.2207,195.058,42.2523,317.8622,8.950000000000001e-05,1.137e-05,0.0,0 STARLINK-3768,1 52301U 22041AS  22305.42702416  .00001137  00000-0  89500-4 0  9996,2 52301  53.2207 195.0580 0001985  42.2523 317.8622 15.08840871 29687,6917.878000000002,95.437,541.116,538.37,0.0
52301.0,STARLINK-3768,PAYLOAD,2022-11-01 22:58:00,15.08836201,0.0002012,53.22,192.6794,41.9582,318.1564,0.00013893,1.923e-05,0.0,0 STARLINK-3768,1 52301U 22041AS  22305.95694648  .00001923  00000-0  13893-3 0  9995,2 52301  53.2200 192.6794 0002012  41.9582 318.1564 15.08836201 30978,6917.892,95.438,541.149,538.365,0.0
52301.0,STARLINK-3768,PAYLOAD,2022-11-02 10:05:42,15.08830973,0.0002028,53.2196,190.5975,42.8379,317.2771,6.6852e-05,7.76e-06,0.0,0 STARLINK-3768,1 52301U 22041AS  22306.42063379  .00000776  00000-0  66852-4 0  9998,2 52301  53.2196 190.5975 0002028  42.8379 317.2771 15.08830973 31040,6917.908,95.438,541.1759999999998,538.37,0.0
52301.0,STARLINK-3768,PAYLOAD,2022-11-03 01:59:35,15.08824797,0.0001927,53.2204,187.623,48.5131,311.6026,-6.9859e-05,-1.399e-05,0.0,0 STARLINK-3768,1 52301U 22041AS  22307.08304608 -.00001399  00000-0 -69859-4 0  9998,2 52301  53.2204 187.6230 0001927  48.5131 311.6026 15.08824797 31146,6917.927,95.439,541.125,538.4590000000002,0.0
52301.0,STARLINK-3768,PAYLOAD,2022-11-03 17:53:25,15.08833489,0.000172,53.2192,184.6488,44.2352,315.8777,8.166300000000001e-05,1.012e-05,0.0,0 STARLINK-3768,1 52301U 22041AS  22307.74543721  .00001012  00000-0  81663-4 0  9999,2 52301  53.2192 184.6488 0001720  44.2352 315.8777 15.08833489 31241,6917.9,95.438,540.955,538.575,0.0
52301.0,STARLINK-3768,PAYLOAD,2022-11-04 01:50:20,15.08850462,0.0001868,53.2195,183.1628,52.1699,307.9462,0.00021508,3.138e-05,0.0,0 STARLINK-3768,1 52301U 22041AS  22308.07662286  .00003138  00000-0  21508-3 0  9996,2 52301  53.2195 183.1628 0001868  52.1699 307.9462 15.08850462 31297,6917.848000000001,95.437,541.006,538.4209999999998,0.0
52301.0,STARLINK-3768,PAYLOAD,2022-11-05 01:41:08,15.08833021,0.0001901,53.2194,178.7033,43.2348,316.8793,9.9255e-05,1.292e-05,0.0,0 STARLINK-3768,1 52301U 22041AS  22309.07023757  .00001292  00000-0  99255-4 0  9995,2 52301  53.2194 178.7033 0001901  43.2348 316.8793 15.08833021 31441,6917.901999999999,95.438,541.082,538.452,0.0
52301.0,STARLINK-3768,PAYLOAD,2022-11-05 08:02:41,15.08832676,0.000192,53.2193,177.5137,42.5924,317.5217,7.7839e-05,9.51e-06,0.0,0 STARLINK-3768,1 52301U 22041AS  22309.33519894  .00000951  00000-0  77839-4 0  9991,2 52301  53.2193 177.5137 0001920  42.5924 317.5217 15.08832676 30279,6917.903,95.438,541.096,538.44,0.0
52301.0,STARLINK-3768,PAYLOAD,2022-11-06 01:31:56,15.08837684,0.0002278,53.2181,174.2435,51.3523,308.7673,-8.913e-05,-1.707e-05,0.0,0 STARLINK-3768,1 52301U 22041AS  22310.06384503 -.00001707  00000-0 -89130-4 0  9999,2 52301  53.2181 174.2435 0002278  51.3523 308.7673 15.08837684 30385,6917.887,95.438,541.328,538.177,0.0
52301.0,STARLINK-3768,PAYLOAD,2022-11-06 19:01:10,15.08833501,0.0001815,53.2191,170.9717,40.7932,319.3196,7.5829e-05,9.19e-06,0.0,0 STARLINK-3768,1 52301U 22041AS  22310.79247916  .00000919  00000-0  75829-4 0  9997,2 52301  53.2191 170.9717 0001815  40.7932 319.3196 15.08833501 31703,6917.9,95.438,541.021,538.51,0.0
52301.0,STARLINK-3768,PAYLOAD,2022-11-07 14:05:48,15.08826686,0.0001906,53.219,167.4043,43.0724,317.0417,4.9588e-05,5.01e-06,0.0,0 STARLINK-3768,1 52301U 22041AS  22311.58736895  .00000501  00000-0  49588-4 0  9994,2 52301  53.2190 167.4043 0001906  43.0724 317.0417 15.08826686 31821,6917.920999999999,95.438,541.105,538.4680000000002,0.0
52301.0,STARLINK-3768,PAYLOAD,2022-11-08 07:35:02,15.08841244,0.0001934,53.2192,164.1334,41.9531,318.1609,6.3756e-05,7.27e-06,0.0,0 STARLINK-3768,1 52301U 22041AS  22312.31600281  .00000727  00000-0  63756-4 0  9998,2 52301  53.2192 164.1334 0001934  41.9531 318.1609 15.08841244 31938,6917.877,95.437,541.08,538.404,0.0
52301.0,STARLINK-3768,PAYLOAD,2022-11-09 20:08:55,15.08833823,0.0001764,53.2196,157.2923,43.209,316.9041,-2.2204e-06,-3.23e-06,0.0,0 STARLINK-3768,1 52301U 22041AS  22313.83952656 -.00000323  00000-0 -22204-5 0  9990,2 52301  53.2196 157.2923 0001764  43.2090 316.9041 15.08833823 32161,6917.899,95.438,540.985,538.544,0.0
52301.0,STARLINK-3768,PAYLOAD,2022-11-09 23:19:42,15.08825411,0.0001740999999999,53.2197,156.6973,43.1871,316.9257,-7.8612e-05,-1.538e-05,0.0,0 STARLINK-3768,1 52301U 22041AS  22313.97201402 -.00001538  00000-0 -78612-4 0  9993,2 52301  53.2197 156.6973 0001741  43.1871 316.9257 15.08825411 32186,6917.925,95.438,540.994,538.586,0.0
52301.0,STARLINK-3768,PAYLOAD,2022-11-10 07:16:37,15.08830933,0.0001973,53.2195,155.2127,43.9273,316.1876,-6.6919e-05,-1.353e-05,0.0,0 STARLINK-3768,1 52301U 22041AS  22314.30321309 -.00001353  00000-0 -66919-4 0  9992,2 52301  53.2195 155.2127 0001973  43.9273 316.1876 15.08830933 31027,6917.908,95.438,541.138,538.408,0.0
52301.0,STARLINK-3768,PAYLOAD,2022-11-10 18:24:19,15.08837629,0.0001725,53.2197,153.131,36.989,323.1221,-0.00011085,-2.052e-05,0.0,0 STARLINK-3768,1 52301U 22041AS  22314.76689015 -.00002052  00000-0 -11085-3 0  9993,2 52301  53.2197 153.1310 0001725  36.9890 323.1221 15.08837629 32305,6917.888000000001,95.438,540.946,538.559,0.0
52301.0,STARLINK-3768,PAYLOAD,2022-11-10 19:59:42,15.08851655,0.0002018,53.2197,152.8338,44.1689,315.9464,-0.00025297,-4.313e-05,0.0,0 STARLINK-3768,1 52301U 22041AS  22314.83313012 -.00004313  00000-0 -25297-3 0  9994,2 52301  53.2197 152.8338 0002018  44.1689 315.9464 15.08851655 31104,6917.845,95.437,541.106,538.314,0.0
52301.0,STARLINK-3768,PAYLOAD,2022-11-11 19:50:29,15.08831335,0.0001977,53.2196,148.3738,44.0072,316.1077,0.00014231,1.977e-05,0.0,0 STARLINK-3768,1 52301U 22041AS  22315.82673001  .00001977  00000-0  14231-3 0  9998,2 52301  53.2196 148.3738 0001977  44.0072 316.1077 15.08831335 32461,6917.906999999997,95.438,541.14,538.404,0.0
52301.0,STARLINK-3768,PAYLOAD,2022-11-12 05:22:48,15.08836893,0.0002002,53.2194,146.5899,43.8267,316.2884,0.00017326,2.47e-05,0.0,0 STARLINK-3768,1 52301U 22041AS  22316.22416811  .00002470  00000-0  17326-3 0  9994,2 52301  53.2194 146.5899 0002002  43.8267 316.2884 15.08836893 31314,6917.89,95.438,541.14,538.37,0.0
